satname,norad_id,inclination_deg,eccentricity,mean_motion_rev_per_day,perigee_km,apogee_km,l1,l2
STARLINK-1008,44714,53.1541,0.0001837,15.46669435,425.22717292841116,427.7271881783472,1 44714U 19074B   26132.67198253  .00010114  00000+0  20768-3 0  9998,2 44714  53.1541 238.2230 0001837  21.0592 339.0491 15.46669435358711
STARLINK-1012,44718,53.1582,0.0001447,15.46850794,424.9607525857191,426.9298540042937,1 44718U 19074F   26132.86766469  .00010405  00000+0  21209-3 0  9997,2 44718  53.1582 237.6069 0001447  12.5158 347.5886 15.46850794358737
STARLINK-1017,44723,53.0499,0.0003956,15.29577494,474.3624688467835,479.7863120989268,1 44723U 19074L   26132.68670898  .00024251  00000+0  84407-3 0  9996,2 44723  53.0499 234.9094 0003956 309.3980  50.6668 15.29577494358749
STARLINK-1019,44724,53.0226,0.0006512,16.2732651,195.45083669808355,204.01785633978943,1 44724U 19074M   26132.63245131  .02594598  12034-4  70640-3 0  9997,2 44724  53.0226 168.3621 0006512 345.3512  14.7339 16.27326510359653
STARLINK-1020,44725,53.1597,0.0001807,15.51032811,412.4820450296429,414.9366182939066,1 44725U 19074N   26132.77837004  .00052898  00000+0  89646-3 0  9990,2 44725  53.1597 263.0005 0001807   0.5806 359.5206 15.51032811358356
STARLINK-1036,44741,53.0425,0.0002104,15.66591772,367.2451959780765,370.0842501431407,1 44741U 19074AE  26132.14319673  .00033751  00000+0  32044-3 0  9993,2 44741  53.0425 238.4529 0002104 252.4660 107.6126 15.66591772358644
STARLINK-1039,44744,53.062,0.0001212,15.26886422,484.2948766365762,485.9585317584733,1 44744U 19074AH  26132.66982456  .00026611  00000+0  10037-2 0  9992,2 44744  53.0620 279.8406 0001212 331.1568  28.9363 15.26886422358113
STARLINK-1042,44747,53.0414,0.0003097,15.52916869,406.113069021495,410.3165353277618,1 44747U 19074AL  26132.74788402  .00013267  00000+0  21677-3 0  9995,2 44747  53.0414 146.6645 0003097  29.9643 330.1543 15.52916869360010
STARLINK-1043,44748,53.0496,0.0001787,15.5813907,391.8330532274804,394.2530729820328,1 44748U 19074AM  26132.57271182  .00026138  00000+0  34617-3 0  9998,2 44748  53.0496 245.2547 0001787 302.4698  57.6141 15.58139070358593
STARLINK-1046,44751,53.0492,0.0004839,15.51893148,407.91356861635904,414.4842879277412,1 44751U 19074AQ  26132.09305194  .00043163  00000+0  71137-3 0  9995,2 44751  53.0492 267.7314 0004839 348.7238  11.3662 15.51893148358230
STARLINK-1047,44752,53.0682,0.0003548,15.33936578,461.65335587593654,466.50859375086475,1 44752U 19074AR  26132.89562044  .00004724  00000+0  15305-3 0  9998,2 44752  53.0682 205.7286 0003548  67.3041 292.8335 15.33936578359198
STARLINK-1048,44753,53.0455,0.0005634,15.64758166,370.1302430585347,377.7384770670542,1 44753U 19074AS  26131.65812581  .00031251  00000+0  31952-3 0  9997,2 44753  53.0455 222.4769 0005634 328.2572  31.8101 15.64758166358825
STARLINK-1063,44768,53.1565,5.27e-05,15.46622209,426.2570883237322,426.9743092581848,1 44768U 19074BH  26132.94258595  .00031727  00000+0  63246-3 0  9994,2 44768  53.1565 277.9433 0000527  64.6076 295.4986 15.46622209358190
STARLINK-1067,44771,53.0438,0.0005371,15.71014708,352.3788569786375,359.61266238908956,1 44771U 19074BL  26132.34268661  .00047417  00000+0  37294-3 0  9994,2 44771  53.0438 252.2727 0005371 284.2581  75.7839 15.71014708358471
STARLINK-1068,44772,53.0439,0.0001842,15.71902038,352.22130701477454,354.70122781649115,1 44772U 19074BM  26132.80522630  .00044777  00000+0  33987-3 0  9996,2 44772  53.0439 223.7791 0001842  63.0718 297.0487 15.71902038358909
STARLINK-1114,44927,53.0435,0.0001902,15.61388843,382.3583147802083,384.9304964269004,1 44927U 20001P   26132.91035551  .00065337  00000+0  75238-3 0  9993,2 44927  53.0435  18.3992 0001902  51.4492 308.6692 15.61388843350095
STARLINK-1123,44930,53.1463,0.0002558,15.54235905,402.6397026596578,406.10963562959114,1 44930U 20001S   26132.95308292  .00051329  00000+0  77555-3 0  9996,2 44930  53.1463  43.4693 0002558 163.3399 196.7697 15.54235905349759
STARLINK-1094,44941,53.1554,0.0001697,15.50896331,412.9551401410972,415.2604280208143,1 44941U 20001AD  26132.92085924  .00029851  00000+0  51321-3 0  9997,2 44941  53.1554  17.9981 0001697 174.2183 185.8847 15.50896331350113
STARLINK-1122,44949,53.1581,0.0001542,15.50757752,413.46499777465215,415.559850857112,1 44949U 20001AM  26132.92694078  .00047253  00000+0  81007-3 0  9991,2 44949  53.1581  18.5153 0001542 182.1259 177.9744 15.50757752350100
STARLINK-1080,44961,53.0472,0.0001635,15.57917299,392.57844411359383,394.7928301159309,1 44961U 20001AZ  26132.85357395  .00066103  00000+0  86837-3 0  9996,2 44961  53.0472 339.0355 0001635 270.2551  89.8273 15.57917299350642
STARLINK-1090,44968,53.1519,0.0001309,15.4732779,423.65642678412405,425.4373694286496,1 44968U 20001BG  26132.91851338  .00047574  00000+0  91952-3 0  9991,2 44968  53.1519   5.6316 0001309 154.9261 205.1811 15.47327790350280
STARLINK-1132,45044,53.1526,9.04e-05,15.52111929,409.94721216196194,411.1746087441725,1 45044U 20006A   26132.84804477  .00052028  00000+0  84864-3 0  9990,2 45044  53.1526 307.9325 0000904 132.7021 227.4066 15.52111929346869
STARLINK-1131,45047,53.1592,0.0001106,15.49065302,418.7073037947348,420.21093205601846,1 45047U 20006D   26132.87407347  .00046374  00000+0  84410-3 0  9995,2 45047  53.1592 340.0391 0001106 219.3570 140.7358 15.49065302346413
STARLINK-1134,45048,53.0275,0.0004748,15.52737088,405.51621425521444,411.96103134662644,1 45048U 20006E   26132.80399763  .00070772  00000+0  11229-2 0  9997,2 45048  53.0275 291.4741 0004748   0.6189 359.4825 15.52737088347073
STARLINK-1156,45054,53.1592,0.0001538,15.32870078,466.20145129817683,468.3070936535905,1 45054U 20006L   26132.86743334  .00030718  00000+0  96177-3 0  9999,2 45054  53.1592 342.5764 0001538 226.6765 133.4109 15.32870078346372
STARLINK-1166,45060,53.0477,0.0001075,15.55402596,400.2538295674949,401.7113402782534,1 45060U 20006S   26132.97244593  .00062396  00000+0  90064-3 0  9997,2 45060  53.0477 324.0094 0001075 219.8161 140.2771 15.55402596346632
STARLINK-1169,45061,53.1572,0.0003374,15.35895897,455.9541274843541,460.56732867126084,1 45061U 20006T   26132.95443033  .00032621  00000+0  92715-3 0  9999,2 45061  53.1572 341.3351 0003374 190.5074 169.5859 15.35895897346404
STARLINK-1171,45062,53.0427,0.0002104,15.71062251,354.4430685551706,357.27673445132314,1 45062U 20006U   26132.72918780  .00045371  00000+0  35664-3 0  9997,2 45062  53.0427 294.0242 0002104 191.1468 168.9503 15.71062251347039
STARLINK-1133,45064,53.1592,0.0001607,15.32950593,465.9145613501605,468.11459306707457,1 45064U 20006W   26132.83869990  .00029346  00000+0  91717-3 0  9994,2 45064  53.1592 319.4941 0001607 252.5995 107.4831 15.32950593346704
STARLINK-1167,45071,53.157,0.0002494,15.35100908,458.9152004233192,462.3263728072825,1 45071U 20006AD  26132.94487292  .00031465  00000+0  91783-3 0  9993,2 45071  53.1570 318.4839 0002494 184.3274 175.7708 15.35100908346723
STARLINK-1168,45072,53.1581,0.0001628,15.32996012,465.76500424499864,467.9937415760178,1 45072U 20006AE  26132.82022921  .00027788  00000+0  86805-3 0  9997,2 45072  53.1581 319.7963 0001628 255.4011 104.6810 15.32996012346692
STARLINK-1172,45074,53.157,0.0002664,15.36098099,455.8397256541248,459.4818387124733,1 45074U 20006AG  26132.78941980  .00030183  00000+0  85345-3 0  9990,2 45074  53.1570 318.7409 0002664 192.2415 167.8524 15.36098099346700
STARLINK-1153,45080,53.1593,0.00032,15.35172599,458.21954190601446,462.59621062682527,1 45080U 20006AN  26132.92882216  .00046612  00000+0  13485-2 0  9998,2 45080  53.1593 318.4756 0003200 207.1869 152.8966 15.35172599346723
STARLINK-1151,45081,53.0501,0.0002495,15.74045953,345.6693957720099,349.0254124896719,1 45081U 20006AP  26132.81526612  .00055514  00000+0  38311-3 0  9999,2 45081  53.0501 282.8998 0002495 222.8843 137.1981 15.74045953347196
STARLINK-1185,45087,53.1607,0.0002438,15.43207912,434.987418356568,438.3103079434404,1 45087U 20006AV  26132.75536568  .00034788  00000+0  77747-3 0  9995,2 45087  53.1607 300.9411 0002438 277.0879  82.9850 15.43207912346956
STARLINK-1183,45088,53.1604,0.000118,15.32847982,466.5122925843989,468.12782044973665,1 45088U 20006AW  26132.79669105  .00016854  00000+0  53423-3 0  9993,2 45088  53.1604 304.4879 0001180 286.9181  73.1691 15.32847982346904
STARLINK-1152,45096,53.0353,0.0002263,15.45988406,426.93504778209535,430.0157205471678,1 45096U 20006BE  26132.61975734  .00049455  00000+0  10003-2 0  9990,2 45096  53.0353 263.1488 0002263   8.6429 351.4615 15.45988406347457
STARLINK-1184,45098,53.0539,0.0002507,15.13216925,524.666171295683,528.1281047124794,1 45098U 20006BG  26132.79188608  .00014496  00000+0  82183-3 0  9993,2 45098  53.0539 315.2247 0002507 338.8317  21.2571 15.13216925346730
STARLINK-1193,45100,53.0478,0.0003737,15.65414984,369.5229919513786,374.56807837815995,1 45100U 20006BJ  26132.67907411  .00032404  00000+0  32267-3 0  9992,2 45100  53.0478 278.3173 0003737 219.8945 140.1795 15.65414984347242
STARLINK-1143,45179,53.04,2.29e-05,15.80273753,329.5122466310713,329.8194640018446,1 45179U 20012B   26132.93693799  .00130151  00000+0  67114-3 0  9992,2 45179  53.0400  11.6318 0000229 252.3561 107.7435 15.80273753346020
STARLINK-1202,45183,53.1554,0.0003093,15.32642059,465.81571538090793,470.0506944096569,1 45183U 20012F   26132.60766330  .00025558  00000+0  80839-3 0  9996,2 45183  53.1554 102.0891 0003093  79.0847 281.0503 15.32642059344745
STARLINK-1216,45185,53.1554,0.0003069,15.32904039,465.0523475769178,469.2539866815014,1 45185U 20012H   26132.33078373  .00031540  00000+0  98598-3 0  9990,2 45185  53.1554 103.2879 0003069  78.2802 281.8544 15.32904039344642
STARLINK-1225,45187,53.1566,0.0002693,15.32857478,465.4483109335015,469.13525887705146,1 45187U 20012K   26132.91538028  .00031935  00000+0  99963-3 0  9999,2 45187  53.1566 101.0131 0002693  76.6344 283.4958 15.32857478344774
